IRIDIUM 119             
1 42959U 17061E   25289.07642154  .00000125  00000+0  37481-4 0  9993
2 42959  86.3946 127.3253 0002406  87.7451 272.4020 14.34218217419828
IRIDIUM 107             
1 42960U 17061F   25289.09544874  .00000138  00000+0  42042-4 0  9990
2 42960  86.3945 127.3371 0002388  78.0054 282.1410 14.34218323419831
IRIDIUM 132             
1 42961U 17061G   25289.10179102  .00000115  00000+0  33867-4 0  9991
2 42961  86.3945 127.3156 0002135  84.2021 275.9418 14.34218105419832
IRIDIUM 136             
1 42962U 17061H   25288.50558744  .00000117  00000+0  34667-4 0  9999
2 42962  86.3946 127.5703 0002272  86.0669 274.0787 14.34218082419769
IRIDIUM 139             
1 42963U 17061J   25289.07007745 -.00000100  00000+0 -42692-4 0  9994
2 42963  86.3951 127.3921 0002042  79.7541 280.3885 14.34217593419854
IRIDIUM 125             
1 42964U 17061K   25288.84808864  .00000137  00000+0  41777-4 0  9991
2 42964  86.3949 127.5417 0002638  82.1787 277.9708 14.34217485419839
IRIDIUM 135             
1 43070U 17083A   25288.82221254  .00000068  00000+0  17212-4 0  9994
2 43070  86.3948  64.1519 0001944  95.1252 265.0165 14.34217789409129
IRIDIUM 138             
1 43071U 17083B   25289.12665022  .00000186  00000+0  59266-4 0  9990
2 43071  86.3963  63.6821 0002458  96.7731 263.3745 14.34215091409159
